GLOBALSTAR M063 [+]     
1 26081U 00008A   23269.34377650 -.00000049  00000+0  49082-3 0  9991
2 26081  51.9976 330.3175 0004708 183.3518 257.1369 11.86144698 82894
GLOBALSTAR M062 [-]     
1 26082U 00008B   23268.83910531 -.00000006  00000+0  65897-3 0  9991
2 26082  51.9833 149.3682 0006210 201.9722 235.6857 12.43415860418209
GLOBALSTAR M060 [-]     
1 26083U 00008C   23269.45096341 -.00000172  00000+0 -80418-3 0  9996
2 26083  52.0049  18.4874 0002714 287.7551 148.3431 12.17613182 75820
GLOBALSTAR M064 [-]     
1 26084U 00008D   23269.39990977 -.00000079  00000+0  55745-4 0  9999
2 26084  52.0026  76.4205 0000720 311.9661  48.1111 11.88509716 92325
GLOBALSTAR M065 [+]     
1 31571U 07020A   23269.41437035 -.00000085  00000+0  10655-3 0  9998
2 31571  51.9917 342.9991 0009965 357.3535  84.0283 12.61952284754199
GLOBALSTAR M069 [+]     
1 31573U 07020C   23268.53822347 -.00000042  00000+0  34363-3 0  9991
2 31573  51.9953 301.8419 0000406 164.1328 349.3373 12.62281509754907
GLOBALSTAR M072 [+]     
1 31574U 07020D   23268.85486490 -.00000091  00000+0  69217-4 0  9993
2 31574  52.0103  36.5733 0001044  93.9254  77.7573 12.62265907753372
GLOBALSTAR M071 [P]     
1 31576U 07020F   23268.55725965 -.00000052  00000+0  28985-3 0  9998
2 31576  52.0072 306.7430 0000891 165.3576 313.4955 12.62268769416093
